PHISAT 2                
1 60470U 24149C   26068.78834181  .00008925  00000+0  31421-3 0  9996
2 60470  97.3806 148.6498 0001175 168.6230 191.5037 15.29548631 86792
STARLINK-35730          
1 66273U 25247J   26068.60412728  .00023294  00000+0  79649-3 0  9993
2 66273  53.1598 191.6227 0001036  61.6153 298.4952 15.30185915 21074
